EUTELSAT 7A             
1 28187U 04008A   25290.59854993  .00000098  00000+0  00000+0 0  9993
2 28187   5.2121  74.8881 0001534 182.1566 205.5863  1.00272629 78921
EUTELSAT 174A           
1 28924U 05052A   25290.80331005  .00000005  00000+0  00000+0 0  9998
2 28924   3.6032  79.5158 0006350 131.3390 278.9427  1.00274349 49901
EUTELSAT HOTBIRD 13B    
1 29270U 06032A   25290.77540323  .00000148  00000+0  00000+0 0  9991
2 29270   1.0320  84.8511 0004072 115.7243 138.2005  1.00270100 44874
EUTELSAT HOTBIRD 13C    
1 33459U 08065A   25290.76638986 -.00000106  00000+0  00000+0 0  9990
2 33459   2.3242  82.0409 0005868 146.7769  61.1200  1.00272043 44916
EUTELSAT 36B            
1 36101U 09065A   25290.85019692  .00000104  00000+0  00000+0 0  9992
2 36101   0.0588  34.1072 0006092 178.4561 170.6025  1.00273030 58279
EUTELSAT KA-SAT 9A      
1 37258U 10069A   25290.77063654  .00000053  00000+0  00000+0 0  9993
2 37258   0.0594 319.3524 0002824 215.4783 138.1520  1.00270612 41574
EUTELSAT 7 WEST A       
1 37816U 11051A   25290.76742986 -.00000069  00000+0  00000+0 0  9994
2 37816   0.0815  37.9086 0006412 166.5119  91.0831  1.00271762 51459
EUTELSAT 16A            
1 37836U 11057A   25290.77202323  .00000095  00000+0  00000+0 0  9997
2 37836   0.0663  13.8571 0005481 195.3575 111.2500  1.00272636  4890
